{"epoch":1784799577,"count":18318,"objects":[{"id":"62647","name":"FLOCK 4G 23","type":"PAYLOAD","l1":"1 62647U 25009AQ  26203.20357205  .00048962  00000-0  14289-2 0  9993","l2":"2 62647  97.3913 284.9096 0003535 157.4119 202.7280 15.35171091 84298"},{"id":"62650","name":"FLOCK 4G 34","type":"PAYLOAD","l1":"1 62650U 25009AT  26203.19039855  .00010944  00000-0  38079-3 0  9996","l2":"2 62650  97.3953 284.6064 0002908 146.5385 213.6039 15.29870844 84260"},{"id":"62651","name":"FLOCK 4G 21","type":"PAYLOAD","l1":"1 62651U 25009AU  26203.48650367  .00041149  00000-0  12778-2 0  9994","l2":"2 62651  97.3981 285.9423 0003703 171.5133 188.6172 15.33244163 84362"},{"id":"62652","name":"FLOCK 4G 31","type":"PAYLOAD","l1":"1 62652U 25009AV  26203.22118758  .00010961  00000-0  38367-3 0  9991","l2":"2 62652  97.3958 284.6072 0002481 146.4128 213.7270 15.29676671 84266"},{"id":"62659","name":"FLOCK 4G 4","type":"PAYLOAD","l1":"1 62659U 25009BC  26203.70376508  .00041399  00000-0  13141-2 0  9991","l2":"2 62659  97.3930 284.9269 0005226 169.6850 190.4500 15.32535262141943"},{"id":"62660","name":"FLOCK 4G 6","type":"PAYLOAD","l1":"1 62660U 25009BD  26203.66634925  .00011084  00000-0  38316-3 0  9998","l2":"2 62660  97.3929 284.9039 0003624 175.9563 184.1707 15.30077069141920"},{"id":"62661","name":"FLOCK 4G 2","type":"PAYLOAD","l1":"1 62661U 25009BE  26203.46206244  .00011127  00000-0  38044-3 0  9992","l2":"2 62661  97.3997 285.3530 0004453 176.5801 183.5471 15.30430864141927"},{"id":"62663","name":"FLOCK 4G 5","type":"PAYLOAD","l1":"1 62663U 25009BG  26203.19282175  .00009376  00000-0  31557-3 0  9996","l2":"2 62663  97.4017 285.4924 0004075 160.6119 199.5278 15.30992295 84296"},{"id":"62666","name":"FLOCK 4G 1","type":"PAYLOAD","l1":"1 62666U 25009BK  26203.18605422  .00012466  00000-0  42765-3 0  9999","l2":"2 62666  97.4009 285.0567 0004695 174.9030 185.2259 15.30291314 84269"},{"id":"62667","name":"FLOCK 4G 14","type":"PAYLOAD","l1":"1 62667U 25009BL  26203.67708895  .00011236  00000-0  39110-3 0  9996","l2":"2 62667  97.4012 285.3375 0004978 169.2767 190.8581 15.29844201 84326"},{"id":"62670","name":"FLOCK 4G 10","type":"PAYLOAD","l1":"1 62670U 25009BP  26203.68750332  .00011529  00000-0  39996-3 0  9991","l2":"2 62670  97.3911 284.6366 0004484 184.4703 175.6499 15.29947640141964"},{"id":"62675","name":"FLOCK 4G 36","type":"PAYLOAD","l1":"1 62675U 25009BU  26203.87836534  .00012934  00000-0  44849-3 0  9990","l2":"2 62675  97.4002 285.4594 0005098 173.3347 186.7962 15.29931033 84352"},{"id":"62678","name":"FLOCK 4G 15","type":"PAYLOAD","l1":"1 62678U 25009BX  26203.55780098  .00016616  00000-0  57310-3 0  9999","l2":"2 62678  97.4005 285.2845 0005213 172.5349 187.5970 15.30048541141950"},{"id":"62679","name":"FLOCK 4G 30","type":"PAYLOAD","l1":"1 62679U 25009BY  26203.48117403  .00044167  00000-0  13235-2 0  9995","l2":"2 62679  97.3899 284.7659 0004889 175.1005 185.0287 15.34357272141956"},{"id":"62680","name":"FLOCK 4G 18","type":"PAYLOAD","l1":"1 62680U 25009BZ  26203.17745725  .00043617  00000-0  13826-2 0  9992","l2":"2 62680  97.3995 284.8485 0006714 188.1448 171.9686 15.32557736141892"},{"id":"62681","name":"FLOCK 4G 17","type":"PAYLOAD","l1":"1 62681U 25009CA  26203.64874887  .00012475  00000-0  42920-3 0  9993","l2":"2 62681  97.3912 284.8385 0004799 186.4948 173.6232 15.30196147141976"}]}