{"fetched_at":"2026-07-23T07:05:20.500Z","source":"https://celestrak.org/NORAD/elements/gp.php?GROUP=planet&FORMAT=JSON","constellation":"superdove","records":[{"OBJECT_NAME":"FLOCK 4G-23","OBJECT_ID":"2025-009AQ","EPOCH":"2026-07-22T04:53:08.625120","CLASSIFICATION_TYPE":"U","MEAN_MOTION":15.35171091,"ECCENTRICITY":0.00035353,"INCLINATION":97.3913,"RA_OF_ASC_NODE":284.9096,"ARG_OF_PERICENTER":157.4119,"MEAN_ANOMALY":202.728,"EPHEMERIS_TYPE":0,"NORAD_CAT_ID":62647,"ELEMENT_SET_NO":999,"REV_AT_EPOCH":8429,"BSTAR":0.0014289089,"MEAN_MOTION_DOT":0.00048962,"MEAN_MOTION_DDOT":0},{"OBJECT_NAME":"FLOCK 4G-34","OBJECT_ID":"2025-009AT","EPOCH":"2026-07-22T04:34:10.434720","CLASSIFICATION_TYPE":"U","MEAN_MOTION":15.29870844,"ECCENTRICITY":0.00029084,"INCLINATION":97.3953,"RA_OF_ASC_NODE":284.6064,"ARG_OF_PERICENTER":146.5385,"MEAN_ANOMALY":213.6039,"EPHEMERIS_TYPE":0,"NORAD_CAT_ID":62650,"ELEMENT_SET_NO":999,"REV_AT_EPOCH":8426,"BSTAR":0.00038078639,"MEAN_MOTION_DOT":0.00010944,"MEAN_MOTION_DDOT":0},{"OBJECT_NAME":"FLOCK 4G-21","OBJECT_ID":"2025-009AU","EPOCH":"2026-07-22T11:40:33.917088","CLASSIFICATION_TYPE":"U","MEAN_MOTION":15.33244163,"ECCENTRICITY":0.00037025,"INCLINATION":97.3981,"RA_OF_ASC_NODE":285.9423,"ARG_OF_PERICENTER":171.5133,"MEAN_ANOMALY":188.6172,"EPHEMERIS_TYPE":0,"NORAD_CAT_ID":62651,"ELEMENT_SET_NO":999,"REV_AT_EPOCH":8436,"BSTAR":0.0012778271,"MEAN_MOTION_DOT":0.00041149,"MEAN_MOTION_DDOT":0},{"OBJECT_NAME":"FLOCK 4G-31","OBJECT_ID":"2025-009AV","EPOCH":"2026-07-22T05:18:30.606912","CLASSIFICATION_TYPE":"U","MEAN_MOTION":15.29676671,"ECCENTRICITY":0.00024809,"INCLINATION":97.3958,"RA_OF_ASC_NODE":284.6072,"ARG_OF_PERICENTER":146.4128,"MEAN_ANOMALY":213.727,"EPHEMERIS_TYPE":0,"NORAD_CAT_ID":62652,"ELEMENT_SET_NO":999,"REV_AT_EPOCH":8426,"BSTAR":0.00038366623,"MEAN_MOTION_DOT":0.00010961,"MEAN_MOTION_DDOT":0},{"OBJECT_NAME":"FLOCK 4G-4","OBJECT_ID":"2025-009BC","EPOCH":"2026-07-22T16:53:25.302912","CLASSIFICATION_TYPE":"U","MEAN_MOTION":15.32535262,"ECCENTRICITY":0.0005226,"INCLINATION":97.393,"RA_OF_ASC_NODE":284.9269,"ARG_OF_PERICENTER":169.685,"MEAN_ANOMALY":190.45,"EPHEMERIS_TYPE":0,"NORAD_CAT_ID":62659,"ELEMENT_SET_NO":999,"REV_AT_EPOCH":14194,"BSTAR":0.0013141306,"MEAN_MOTION_DOT":0.00041399,"MEAN_MOTION_DDOT":0},{"OBJECT_NAME":"FLOCK 4G-6","OBJECT_ID":"2025-009BD","EPOCH":"2026-07-22T15:59:32.575200","CLASSIFICATION_TYPE":"U","MEAN_MOTION":15.30077069,"ECCENTRICITY":0.00036236,"INCLINATION":97.3929,"RA_OF_ASC_NODE":284.9039,"ARG_OF_PERICENTER":175.9563,"MEAN_ANOMALY":184.1707,"EPHEMERIS_TYPE":0,"NORAD_CAT_ID":62660,"ELEMENT_SET_NO":999,"REV_AT_EPOCH":14192,"BSTAR":0.00038315925,"MEAN_MOTION_DOT":0.00011084,"MEAN_MOTION_DDOT":0},{"OBJECT_NAME":"FLOCK 4G-2","OBJECT_ID":"2025-009BE","EPOCH":"2026-07-22T11:05:22.194816","CLASSIFICATION_TYPE":"U","MEAN_MOTION":15.30430864,"ECCENTRICITY":0.00044532,"INCLINATION":97.3997,"RA_OF_ASC_NODE":285.353,"ARG_OF_PERICENTER":176.5801,"MEAN_ANOMALY":183.5471,"EPHEMERIS_TYPE":0,"NORAD_CAT_ID":62661,"ELEMENT_SET_NO":999,"REV_AT_EPOCH":14192,"BSTAR":0.00038043992,"MEAN_MOTION_DOT":0.00011127,"MEAN_MOTION_DDOT":0},{"OBJECT_NAME":"FLOCK 4G-5","OBJECT_ID":"2025-009BG","EPOCH":"2026-07-22T04:37:39.799200","CLASSIFICATION_TYPE":"U","MEAN_MOTION":15.30992295,"ECCENTRICITY":0.00040747,"INCLINATION":97.4017,"RA_OF_ASC_NODE":285.4924,"ARG_OF_PERICENTER":160.6119,"MEAN_ANOMALY":199.5278,"EPHEMERIS_TYPE":0,"NORAD_CAT_ID":62663,"ELEMENT_SET_NO":999,"REV_AT_EPOCH":8429,"BSTAR":0.00031556914,"MEAN_MOTION_DOT":0.00009376,"MEAN_MOTION_DDOT":0},{"OBJECT_NAME":"FLOCK 4G-1","OBJECT_ID":"2025-009BK","EPOCH":"2026-07-22T04:27:55.084608","CLASSIFICATION_TYPE":"U","MEAN_MOTION":15.30291314,"ECCENTRICITY":0.00046949,"INCLINATION":97.4009,"RA_OF_ASC_NODE":285.0567,"ARG_OF_PERICENTER":174.903,"MEAN_ANOMALY":185.2259,"EPHEMERIS_TYPE":0,"NORAD_CAT_ID":62666,"ELEMENT_SET_NO":999,"REV_AT_EPOCH":8426,"BSTAR":0.00042764858,"MEAN_MOTION_DOT":0.00012466,"MEAN_MOTION_DDOT":0},{"OBJECT_NAME":"FLOCK 4G-14","OBJECT_ID":"2025-009BL","EPOCH":"2026-07-22T16:15:00.485280","CLASSIFICATION_TYPE":"U","MEAN_MOTION":15.29844201,"ECCENTRICITY":0.00049781,"INCLINATION":97.4012,"RA_OF_ASC_NODE":285.3375,"ARG_OF_PERICENTER":169.2767,"MEAN_ANOMALY":190.8581,"EPHEMERIS_TYPE":0,"NORAD_CAT_ID":62667,"ELEMENT_SET_NO":999,"REV_AT_EPOCH":8432,"BSTAR":0.00039109821,"MEAN_MOTION_DOT":0.00011236,"MEAN_MOTION_DDOT":0},{"OBJECT_NAME":"FLOCK 4G-10","OBJECT_ID":"2025-009BP","EPOCH":"2026-07-22T16:30:00.286848","CLASSIFICATION_TYPE":"U","MEAN_MOTION":15.2994764,"ECCENTRICITY":0.00044841,"INCLINATION":97.3911,"RA_OF_ASC_NODE":284.6366,"ARG_OF_PERICENTER":184.4703,"MEAN_ANOMALY":175.6499,"EPHEMERIS_TYPE":0,"NORAD_CAT_ID":62670,"ELEMENT_SET_NO":999,"REV_AT_EPOCH":14196,"BSTAR":0.00039996252,"MEAN_MOTION_DOT":0.00011529,"MEAN_MOTION_DDOT":0},{"OBJECT_NAME":"FLOCK 4G-36","OBJECT_ID":"2025-009BU","EPOCH":"2026-07-22T21:04:50.765376","CLASSIFICATION_TYPE":"U","MEAN_MOTION":15.29931033,"ECCENTRICITY":0.00050984,"INCLINATION":97.4002,"RA_OF_ASC_NODE":285.4594,"ARG_OF_PERICENTER":173.3347,"MEAN_ANOMALY":186.7962,"EPHEMERIS_TYPE":0,"NORAD_CAT_ID":62675,"ELEMENT_SET_NO":999,"REV_AT_EPOCH":8435,"BSTAR":0.00044849147,"MEAN_MOTION_DOT":0.00012934,"MEAN_MOTION_DDOT":0},{"OBJECT_NAME":"FLOCK 4G-15","OBJECT_ID":"2025-009BX","EPOCH":"2026-07-22T13:23:14.004672","CLASSIFICATION_TYPE":"U","MEAN_MOTION":15.30048541,"ECCENTRICITY":0.0005213,"INCLINATION":97.4005,"RA_OF_ASC_NODE":285.2845,"ARG_OF_PERICENTER":172.5349,"MEAN_ANOMALY":187.597,"EPHEMERIS_TYPE":0,"NORAD_CAT_ID":62678,"ELEMENT_SET_NO":999,"REV_AT_EPOCH":14195,"BSTAR":0.00057309592,"MEAN_MOTION_DOT":0.00016616,"MEAN_MOTION_DDOT":0},{"OBJECT_NAME":"FLOCK 4G-30","OBJECT_ID":"2025-009BY","EPOCH":"2026-07-22T11:32:53.436192","CLASSIFICATION_TYPE":"U","MEAN_MOTION":15.34357272,"ECCENTRICITY":0.00048893,"INCLINATION":97.3899,"RA_OF_ASC_NODE":284.7659,"ARG_OF_PERICENTER":175.1005,"MEAN_ANOMALY":185.0287,"EPHEMERIS_TYPE":0,"NORAD_CAT_ID":62679,"ELEMENT_SET_NO":999,"REV_AT_EPOCH":14195,"BSTAR":0.0013234638,"MEAN_MOTION_DOT":0.00044167,"MEAN_MOTION_DDOT":0},{"OBJECT_NAME":"FLOCK 4G-18","OBJECT_ID":"2025-009BZ","EPOCH":"2026-07-22T04:15:32.306400","CLASSIFICATION_TYPE":"U","MEAN_MOTION":15.32557736,"ECCENTRICITY":0.0006714,"INCLINATION":97.3995,"RA_OF_ASC_NODE":284.8485,"ARG_OF_PERICENTER":188.1448,"MEAN_ANOMALY":171.9686,"EPHEMERIS_TYPE":0,"NORAD_CAT_ID":62680,"ELEMENT_SET_NO":999,"REV_AT_EPOCH":14189,"BSTAR":0.0013826454,"MEAN_MOTION_DOT":0.00043617,"MEAN_MOTION_DDOT":0},{"OBJECT_NAME":"FLOCK 4G-17","OBJECT_ID":"2025-009CA","EPOCH":"2026-07-22T15:34:11.902368","CLASSIFICATION_TYPE":"U","MEAN_MOTION":15.30196147,"ECCENTRICITY":0.00047992,"INCLINATION":97.3912,"RA_OF_ASC_NODE":284.8385,"ARG_OF_PERICENTER":186.4948,"MEAN_ANOMALY":173.6232,"EPHEMERIS_TYPE":0,"NORAD_CAT_ID":62681,"ELEMENT_SET_NO":999,"REV_AT_EPOCH":14197,"BSTAR":0.00042919987,"MEAN_MOTION_DOT":0.00012475,"MEAN_MOTION_DDOT":0}]}
